{"type": "FeatureCollection", "features": [ {"type": "Feature", "properties": {"norad_id": 66628, "name": "STARLINK-35862", "group": "last-30-days", "lat": -47.84388801657022, "lon": 53.72043494904811, "alt_km": 423.6531980441878, "timestamp": "2025-12-14T16:47:39.437456+00:00", "meta": {"OBJECT_NAME": "STARLINK-35862", "OBJECT_ID": "2025-271M", "EPOCH": "2025-12-13T20:00:03.000384", "MEAN_MOTION": 15.49271111, "ECCENTRICITY": 7.024e-05, "INCLINATION": 53.16, "RA_OF_ASC_NODE": 181.9602, "ARG_OF_PERICENTER": 88.6916, "MEAN_ANOMALY": 4.0433, "EPHEMERIS_TYPE": 0, "CLASSIFICATION_TYPE": "U", "NORAD_CAT_ID": 66628, "ELEMENT_SET_NO": 999, "REV_AT_EPOCH": 441, "BSTAR": 0.0011089921, "MEAN_MOTION_DOT": 0.00061635, "MEAN_MOTION_DDOT": 0}, "tle": {"line1": "1 66628U 25271M   25347.83336806  .00061635  00000+0  11090-2 0  9996", "line2": "2 66628  53.1600 181.9602 0000702  88.6916   4.0433 15.49271111  4414"}}, "geometry": {"type": "Point", "coordinates": [53.72043494904811, -47.84388801657022]}}, {"type": "Feature", "properties": {"norad_id": 66629, "name": "STARLINK-35956", "group": "last-30-days", "lat": -48.67677134030991, "lon": 56.31827460164142, "alt_km": 423.70226965985603, "timestamp": "2025-12-14T16:47:39.437466+00:00", "meta": {"OBJECT_NAME": "STARLINK-35956", "OBJECT_ID": "2025-271N", "EPOCH": "2025-12-13T20:00:03.000384", "MEAN_MOTION": 15.49264095, "ECCENTRICITY": 7.903e-05, "INCLINATION": 53.16, "RA_OF_ASC_NODE": 181.9565, "ARG_OF_PERICENTER": 92.2826, "MEAN_ANOMALY": 2.3748, "EPHEMERIS_TYPE": 0, "CLASSIFICATION_TYPE": "U", "NORAD_CAT_ID": 66629, "ELEMENT_SET_NO": 999, "REV_AT_EPOCH": 441, "BSTAR": 0.0012674207, "MEAN_MOTION_DOT": 0.00070567, "MEAN_MOTION_DDOT": 0}, "tle": {"line1": "1 66629U 25271N   25347.83336806  .00070567  00000+0  12674-2 0  9990", "line2": "2 66629  53.1600 181.9565 0000790  92.2826   2.3748 15.49264095  4414"}}, "geometry": {"type": "Point", "coordinates": [56.31827460164142, -48.67677134030991]}}, {"type": "Feature", "properties": {"norad_id": 66630, "name": "STARLINK-35949", "group": "last-30-days", "lat": -49.43597823071427, "lon": 58.95049989405229, "alt_km": 424.0558402612978, "timestamp": "2025-12-14T16:47:39.437476+00:00", "meta": {"OBJECT_NAME": "STARLINK-35949", "OBJECT_ID": "2025-271P", "EPOCH": "2025-12-13T20:00:03.000384", "MEAN_MOTION": 15.49271594, "ECCENTRICITY": 0.00012157, "INCLINATION": 53.16, "RA_OF_ASC_NODE": 181.9514, "ARG_OF_PERICENTER": 90.6038, "MEAN_ANOMALY": 5.9563, "EPHEMERIS_TYPE": 0, "CLASSIFICATION_TYPE": "U", "NORAD_CAT_ID": 66630, "ELEMENT_SET_NO": 999, "REV_AT_EPOCH": 441, "BSTAR": 0.0010254652, "MEAN_MOTION_DOT": 0.00056925, "MEAN_MOTION_DDOT": 0}, "tle": {"line1": "1 66630U 25271P   25347.83336806  .00056925  00000+0  10255-2 0  9997", "line2": "2 66630  53.1600 181.9514 0001215  90.6038   5.9563 15.49271594  4416"}}, "geometry": {"type": "Point", "coordinates": [58.95049989405229, -49.43597823071427]}}, {"type": "Feature", "properties": {"norad_id": 66631, "name": "STARLINK-35965", "group": "last-30-days", "lat": -50.14662220099995, "lon": 61.71954381090547, "alt_km": 423.58856861405275, "timestamp": "2025-12-14T16:47:39.437487+00:00", "meta": {"OBJECT_NAME": "STARLINK-35965", "OBJECT_ID": "2025-271Q", "EPOCH": "2025-12-13T20:00:03.000384", "MEAN_MOTION": 15.49298064, "ECCENTRICITY": 5.443e-05, "INCLINATION": 53.1599, "RA_OF_ASC_NODE": 181.9485, "ARG_OF_PERICENTER": 57.042, "MEAN_ANOMALY": 41.3686, "EPHEMERIS_TYPE": 0, "CLASSIFICATION_TYPE": "U", "NORAD_CAT_ID": 66631, "ELEMENT_SET_NO": 999, "REV_AT_EPOCH": 441, "BSTAR": 0.001039053, "MEAN_MOTION_DOT": 0.00057745, "MEAN_MOTION_DDOT": 0}, "tle": {"line1": "1 66631U 25271Q   25347.83336806  .00057745  00000+0  10391-2 0  9990", "line2": "2 66631  53.1599 181.9485 0000544  57.0420  41.3686 15.49298064  4418"}}, "geometry": {"type": "Point", "coordinates": [61.71954381090547, -50.14662220099995]}}, {"type": "Feature", "properties": {"norad_id": 66632, "name": "STARLINK-35973", "group": "last-30-days", "lat": -48.04425837315874, "lon": 54.321126081625906, "alt_km": 436.24277962886845, "timestamp": "2025-12-14T16:47:39.437499+00:00", "meta": {"OBJECT_NAME": "STARLINK-35973", "OBJECT_ID": "2025-271R", "EPOCH": "2025-12-13T20:00:03.000384", "MEAN_MOTION": 15.49036942, "ECCENTRICITY": 8.206e-05, "INCLINATION": 53.1599, "RA_OF_ASC_NODE": 181.9441, "ARG_OF_PERICENTER": 76.2752, "MEAN_ANOMALY": 24.0228, "EPHEMERIS_TYPE": 0, "CLASSIFICATION_TYPE": "U", "NORAD_CAT_ID": 66632, "ELEMENT_SET_NO": 999, "REV_AT_EPOCH": 436, "BSTAR": -0.043627729, "MEAN_MOTION_DOT": -0.02129734, "MEAN_MOTION_DDOT": 0}, "tle": {"line1": "1 66632U 25271R   25347.83336806 -.02129734  00000+0 -43628-1 0  9991", "line2": "2 66632  53.1599 181.9441 0000820  76.2752  24.0228 15.49036942  4368"}}, "geometry": {"type": "Point", "coordinates": [54.321126081625906, -48.04425837315874]}}, {"type": "Feature", "properties": {"norad_id": 66633, "name": "STARLINK-35948", "group": "last-30-days", "lat": -48.869764427179945, "lon": 56.9587958339584, "alt_km": 436.1954204191852, "timestamp": "2025-12-14T16:47:39.437510+00:00", "meta": {"OBJECT_NAME": "STARLINK-35948", "OBJECT_ID": "2025-271S", "EPOCH": "2025-12-13T20:00:03.000384", "MEAN_MOTION": 15.48973441, "ECCENTRICITY": 0.00010502, "INCLINATION": 53.1601, "RA_OF_ASC_NODE": 181.9392, "ARG_OF_PERICENTER": 79.5087, "MEAN_ANOMALY": 22.7409, "EPHEMERIS_TYPE": 0, "CLASSIFICATION_TYPE": "U", "NORAD_CAT_ID": 66633, "ELEMENT_SET_NO": 999, "REV_AT_EPOCH": 441, "BSTAR": -0.042397307, "MEAN_MOTION_DOT": -0.02072336, "MEAN_MOTION_DDOT": 0}, "tle": {"line1": "1 66633U 25271S   25347.83336806 -.02072336  00000+0 -42397-1 0  9999", "line2": "2 66633  53.1601 181.9392 0001050  79.5087  22.7409 15.48973441  4416"}}, "geometry": {"type": "Point", "coordinates": [56.9587958339584, -48.869764427179945]}}, {"type": "Feature", "properties": {"norad_id": 66634, "name": "STARLINK-35967", "group": "last-30-days", "lat": -51.836232241054624, "lon": 70.33839834087095, "alt_km": 424.2529202548176, "timestamp": "2025-12-14T16:47:39.437522+00:00", "meta": {"OBJECT_NAME": "STARLINK-35967", "OBJECT_ID": "2025-271T", "EPOCH": "2025-12-13T20:00:03.000384", "MEAN_MOTION": 15.49290761, "ECCENTRICITY": 0.00011431, "INCLINATION": 53.16, "RA_OF_ASC_NODE": 181.9347, "ARG_OF_PERICENTER": 83.2444, "MEAN_ANOMALY": 20.982, "EPHEMERIS_TYPE": 0, "CLASSIFICATION_TYPE": "U", "NORAD_CAT_ID": 66634, "ELEMENT_SET_NO": 999, "REV_AT_EPOCH": 435, "BSTAR": 0.00038088278, "MEAN_MOTION_DOT": 0.00020778, "MEAN_MOTION_DDOT": 0}, "tle": {"line1": "1 66634U 25271T   25347.83336806  .00020778  00000+0  38088-3 0  9993", "line2": "2 66634  53.1600 181.9347 0001143  83.2444  20.9820 15.49290761  4356"}}, "geometry": {"type": "Point", "coordinates": [70.33839834087095, -51.836232241054624]}}, {"type": "Feature", "properties": {"norad_id": 66635, "name": "STARLINK-35955", "group": "last-30-days", "lat": -52.25185890782361, "lon": 73.3320157867732, "alt_km": 423.58083456566055, "timestamp": "2025-12-14T16:47:39.437532+00:00", "meta": {"OBJECT_NAME": "STARLINK-35955", "OBJECT_ID": "2025-271U", "EPOCH": "2025-12-13T20:00:03.000384", "MEAN_MOTION": 15.4925542, "ECCENTRICITY": 1.461e-05, "INCLINATION": 53.16, "RA_OF_ASC_NODE": 181.931, "ARG_OF_PERICENTER": 55.0302, "MEAN_ANOMALY": 51.1445, "EPHEMERIS_TYPE": 0, "CLASSIFICATION_TYPE": "U", "NORAD_CAT_ID": 66635, "ELEMENT_SET_NO": 999, "REV_AT_EPOCH": 441, "BSTAR": 0.00076251686, "MEAN_MOTION_DOT": 0.00042109, "MEAN_MOTION_DDOT": 0}, "tle": {"line1": "1 66635U 25271U   25347.83336806  .00042109  00000+0  76252-3 0  9991", "line2": "2 66635  53.1600 181.9310 0000146  55.0302  51.1445 15.49255420  4418"}}, "geometry": {"type": "Point", "coordinates": [73.3320157867732, -52.25185890782361]}}, {"type": "Feature", "properties": {"norad_id": 66636, "name": "STARLINK-35968", "group": "last-30-days", "lat": -52.60390947292109, "lon": 76.51846620894162, "alt_km": 423.8072923003956, "timestamp": "2025-12-14T16:47:39.437542+00:00", "meta": {"OBJECT_NAME": "STARLINK-35968", "OBJECT_ID": "2025-271V", "EPOCH": "2025-12-13T20:00:03.000384", "MEAN_MOTION": 15.49275426, "ECCENTRICITY": 6.087e-05, "INCLINATION": 53.1599, "RA_OF_ASC_NODE": 181.9267, "ARG_OF_PERICENTER": 74.8963, "MEAN_ANOMALY": 33.1741, "EPHEMERIS_TYPE": 0, "CLASSIFICATION_TYPE": "U", "NORAD_CAT_ID": 66636, "ELEMENT_SET_NO": 999, "REV_AT_EPOCH": 441, "BSTAR": 0.00091225709, "MEAN_MOTION_DOT": 0.00050556, "MEAN_MOTION_DDOT": 0}, "tle": {"line1": "1 66636U 25271V   25347.83336806  .00050556  00000+0  91226-3 0  9995", "line2": "2 66636  53.1599 181.9267 0000608  74.8963  33.1741 15.49275426  4419"}}, "geometry": {"type": "Point", "coordinates": [76.51846620894162, -52.60390947292109]}}, {"type": "Feature", "properties": {"norad_id": 66637, "name": "STARLINK-35953", "group": "last-30-days", "lat": -52.87223776097221, "lon": 79.79810218860085, "alt_km": 423.5158537442321, "timestamp": "2025-12-14T16:47:39.437552+00:00", "meta": {"OBJECT_NAME": "STARLINK-35953", "OBJECT_ID": "2025-271W", "EPOCH": "2025-12-13T20:00:03.000384", "MEAN_MOTION": 15.49298934, "ECCENTRICITY": 6.103e-05, "INCLINATION": 53.1599, "RA_OF_ASC_NODE": 181.9232, "ARG_OF_PERICENTER": 59.7949, "MEAN_ANOMALY": 50.1056, "EPHEMERIS_TYPE": 0, "CLASSIFICATION_TYPE": "U", "NORAD_CAT_ID": 66637, "ELEMENT_SET_NO": 999, "REV_AT_EPOCH": 441, "BSTAR": 0.0016283317, "MEAN_MOTION_DOT": 0.00091143, "MEAN_MOTION_DDOT": 0}, "tle": {"line1": "1 66637U 25271W   25347.83336806  .00091143  00000+0  16283-2 0  9992", "line2": "2 66637  53.1599 181.9232 0000610  59.7949  50.1056 15.49298934  4418"}}, "geometry": {"type": "Point", "coordinates": [79.79810218860085, -52.87223776097221]}}]}